SPOT7
1 40053U 14034A   18094.47051783 -.00000011  00000-0  75232-5 0  9998
2 40053  98.1939 163.0980 0001114  83.4109 276.7227 14.58545690200330
